[
  {
    "OBJECT_NAME": "STARLINK-4374",
    "OBJECT_ID": "22105E",
    "EPOCH": "2025-11-11T06:18:39.618720",
    "MEAN_MOTION": 15.01259983,
    "ECCENTRICITY": 0.0003301,
    "INCLINATION": 97.602,
    "RA_OF_ASC_NODE": 194.2678,
    "ARG_OF_PERICENTER": 65.7806,
    "MEAN_ANOMALY": 294.3764,
    "EPHEMERIS_TYPE": 0,
    "CLASSIFICATION_TYPE": "U",
    "NORAD_CAT_ID": 53652,
    "ELEMENT_SET_NO": 999,
    "REV_AT_EPOCH": 17546,
    "BSTAR": 7.5803e-05,
    "MEAN_MOTION_DOT": 9.15e-06,
    "MEAN_MOTION_DDOT": 0.0,
    "TLE_LINE1": "1 53652U 22105E   25315.26295855  .00000915  00000+0  75803-4 0  9990",
    "TLE_LINE2": "2 53652  97.6020 194.2678 0003301  65.7806 294.3764 15.01259983175464",
    "COMMENT": "Grouped by shell and plane from TLE"
  },
  {
    "OBJECT_NAME": "STARLINK-4390",
    "OBJECT_ID": "22105F",
    "EPOCH": "2025-11-11T05:09:21.009600",
    "MEAN_MOTION": 15.01260761,
    "ECCENTRICITY": 0.0003125,
    "INCLINATION": 97.603,
    "RA_OF_ASC_NODE": 194.186,
    "ARG_OF_PERICENTER": 77.6582,
    "MEAN_ANOMALY": 282.4992,
    "EPHEMERIS_TYPE": 0,
    "CLASSIFICATION_TYPE": "U",
    "NORAD_CAT_ID": 53653,
    "ELEMENT_SET_NO": 999,
    "REV_AT_EPOCH": 17545,
    "BSTAR": 0.00010866,
    "MEAN_MOTION_DOT": 1.338e-05,
    "MEAN_MOTION_DDOT": 0.0,
    "TLE_LINE1": "1 53653U 22105F   25315.21482650  .00001338  00000+0  10866-3 0  9994",
    "TLE_LINE2": "2 53653  97.6030 194.1860 0003125  77.6582 282.4992 15.01260761175451",
    "COMMENT": "Grouped by shell and plane from TLE"
  },
  {
    "OBJECT_NAME": "STARLINK-4420",
    "OBJECT_ID": "22105G",
    "EPOCH": "2025-11-11T05:50:33.153792",
    "MEAN_MOTION": 15.05652412,
    "ECCENTRICITY": 0.0001481,
    "INCLINATION": 97.6011,
    "RA_OF_ASC_NODE": 194.4387,
    "ARG_OF_PERICENTER": 86.1927,
    "MEAN_ANOMALY": 273.9469,
    "EPHEMERIS_TYPE": 0,
    "CLASSIFICATION_TYPE": "U",
    "NORAD_CAT_ID": 53654,
    "ELEMENT_SET_NO": 999,
    "REV_AT_EPOCH": 17547,
    "BSTAR": 9.6459e-05,
    "MEAN_MOTION_DOT": 1.331e-05,
    "MEAN_MOTION_DDOT": 0.0,
    "TLE_LINE1": "1 53654U 22105G   25315.24343928  .00001331  00000+0  96459-4 0  9998",
    "TLE_LINE2": "2 53654  97.6011 194.4387 0001481  86.1927 273.9469 15.05652412175477",
    "COMMENT": "Grouped by shell and plane from TLE"
  },
  {
    "OBJECT_NAME": "STARLINK-4470",
    "OBJECT_ID": "22105H",
    "EPOCH": "2025-11-11T06:02:32.656704",
    "MEAN_MOTION": 15.05562487,
    "ECCENTRICITY": 0.0002659,
    "INCLINATION": 97.6011,
    "RA_OF_ASC_NODE": 194.4344,
    "ARG_OF_PERICENTER": 75.1828,
    "MEAN_ANOMALY": 284.9694,
    "EPHEMERIS_TYPE": 0,
    "CLASSIFICATION_TYPE": "U",
    "NORAD_CAT_ID": 53655,
    "ELEMENT_SET_NO": 999,
    "REV_AT_EPOCH": 17547,
    "BSTAR": 0.0011923,
    "MEAN_MOTION_DOT": 0.00017146,
    "MEAN_MOTION_DDOT": 0.0,
    "TLE_LINE1": "1 53655U 22105H   25315.25176686  .00017146  00000+0  11923-2 0  9997",
    "TLE_LINE2": "2 53655  97.6011 194.4344 0002659  75.1828 284.9694 15.05562487175471",
    "COMMENT": "Grouped by shell and plane from TLE"
  },
  {
    "OBJECT_NAME": "STARLINK-4466",
    "OBJECT_ID": "22105J",
    "EPOCH": "2025-11-11T06:02:39.445152",
    "MEAN_MOTION": 15.01266981,
    "ECCENTRICITY": 0.0001937,
    "INCLINATION": 97.6023,
    "RA_OF_ASC_NODE": 194.2602,
    "ARG_OF_PERICENTER": 85.9075,
    "MEAN_ANOMALY": 274.2371,
    "EPHEMERIS_TYPE": 0,
    "CLASSIFICATION_TYPE": "U",
    "NORAD_CAT_ID": 53656,
    "ELEMENT_SET_NO": 999,
    "REV_AT_EPOCH": 17546,
    "BSTAR": 0.00021555,
    "MEAN_MOTION_DOT": 2.712e-05,
    "MEAN_MOTION_DDOT": 0.0,
    "TLE_LINE1": "1 53656U 22105J   25315.25184543  .00002712  00000+0  21555-3 0  9995",
    "TLE_LINE2": "2 53656  97.6023 194.2602 0001937  85.9075 274.2371 15.01266981175460",
    "COMMENT": "Grouped by shell and plane from TLE"
  },
  {
    "OBJECT_NAME": "STARLINK-4452",
    "OBJECT_ID": "22105L",
    "EPOCH": "2025-11-11T06:26:27.003840",
    "MEAN_MOTION": 15.05645319,
    "ECCENTRICITY": 0.0002733,
    "INCLINATION": 97.6006,
    "RA_OF_ASC_NODE": 194.5469,
    "ARG_OF_PERICENTER": 77.8777,
    "MEAN_ANOMALY": 282.2756,
    "EPHEMERIS_TYPE": 0,
    "CLASSIFICATION_TYPE": "U",
    "NORAD_CAT_ID": 53658,
    "ELEMENT_SET_NO": 999,
    "REV_AT_EPOCH": 17548,
    "BSTAR": 9.550500000000001e-06,
    "MEAN_MOTION_DOT": 7.7e-07,
    "MEAN_MOTION_DDOT": 0.0,
    "TLE_LINE1": "1 53658U 22105L   25315.26836810  .00000077  00000+0  95505-5 0  9999",
    "TLE_LINE2": "2 53658  97.6006 194.5469 0002733  77.8777 282.2756 15.05645319175489",
    "COMMENT": "Grouped by shell and plane from TLE"
  },
  {
    "OBJECT_NAME": "STARLINK-4463",
    "OBJECT_ID": "22105M",
    "EPOCH": "2025-11-11T05:42:33.676992",
    "MEAN_MOTION": 15.05690976,
    "ECCENTRICITY": 0.000177,
    "INCLINATION": 97.6012,
    "RA_OF_ASC_NODE": 194.4376,
    "ARG_OF_PERICENTER": 73.6729,
    "MEAN_ANOMALY": 286.4693,
    "EPHEMERIS_TYPE": 0,
    "CLASSIFICATION_TYPE": "U",
    "NORAD_CAT_ID": 53659,
    "ELEMENT_SET_NO": 999,
    "REV_AT_EPOCH": 17547,
    "BSTAR": 0.0,
    "MEAN_MOTION_DOT": -0.00011438,
    "MEAN_MOTION_DDOT": 0.0,
    "TLE_LINE1": "1 53659U 22105M   25315.23788978 -.00011438  00000+0 -78890-3 0  9999",
    "TLE_LINE2": "2 53659  97.6012 194.4376 0001770  73.6729 286.4693 15.05690976175478",
    "COMMENT": "Grouped by shell and plane from TLE"
  },
  {
    "OBJECT_NAME": "STARLINK-4473",
    "OBJECT_ID": "22105N",
    "EPOCH": "2025-11-11T05:57:19.684800",
    "MEAN_MOTION": 15.01260831,
    "ECCENTRICITY": 0.0001669,
    "INCLINATION": 97.6022,
    "RA_OF_ASC_NODE": 194.2518,
    "ARG_OF_PERICENTER": 89.1498,
    "MEAN_ANOMALY": 270.9918,
    "EPHEMERIS_TYPE": 0,
    "CLASSIFICATION_TYPE": "U",
    "NORAD_CAT_ID": 53660,
    "ELEMENT_SET_NO": 999,
    "REV_AT_EPOCH": 17546,
    "BSTAR": 1.0874000000000001e-05,
    "MEAN_MOTION_DOT": 8.1e-07,
    "MEAN_MOTION_DDOT": 0.0,
    "TLE_LINE1": "1 53660U 22105N   25315.24814450  .00000081  00000+0  10874-4 0  9996",
    "TLE_LINE2": "2 53660  97.6022 194.2518 0001669  89.1498 270.9918 15.01260831175465",
    "COMMENT": "Grouped by shell and plane from TLE"
  },
  {
    "OBJECT_NAME": "STARLINK-4472",
    "OBJECT_ID": "22105P",
    "EPOCH": "2025-11-11T06:00:20.610720",
    "MEAN_MOTION": 15.01252419,
    "ECCENTRICITY": 0.0001807,
    "INCLINATION": 97.6016,
    "RA_OF_ASC_NODE": 194.2587,
    "ARG_OF_PERICENTER": 96.3776,
    "MEAN_ANOMALY": 263.7655,
    "EPHEMERIS_TYPE": 0,
    "CLASSIFICATION_TYPE": "U",
    "NORAD_CAT_ID": 53661,
    "ELEMENT_SET_NO": 999,
    "REV_AT_EPOCH": 17546,
    "BSTAR": 0.00016141,
    "MEAN_MOTION_DOT": 2.015e-05,
    "MEAN_MOTION_DDOT": 0.0,
    "TLE_LINE1": "1 53661U 22105P   25315.25023855  .00002015  00000+0  16141-3 0  9990",
    "TLE_LINE2": "2 53661  97.6016 194.2587 0001807  96.3776 263.7655 15.01252419175469",
    "COMMENT": "Grouped by shell and plane from TLE"
  },
  {
    "OBJECT_NAME": "STARLINK-4357",
    "OBJECT_ID": "22105Q",
    "EPOCH": "2025-11-11T05:46:33.292704",
    "MEAN_MOTION": 15.05666214,
    "ECCENTRICITY": 0.0002373,
    "INCLINATION": 97.6019,
    "RA_OF_ASC_NODE": 194.3995,
    "ARG_OF_PERICENTER": 83.2627,
    "MEAN_ANOMALY": 276.8869,
    "EPHEMERIS_TYPE": 0,
    "CLASSIFICATION_TYPE": "U",
    "NORAD_CAT_ID": 53662,
    "ELEMENT_SET_NO": 999,
    "REV_AT_EPOCH": 17547,
    "BSTAR": 9.689900000000001e-05,
    "MEAN_MOTION_DOT": 1.338e-05,
    "MEAN_MOTION_DDOT": 0.0,
    "TLE_LINE1": "1 53662U 22105Q   25315.24066311  .00001338  00000+0  96899-4 0  9990",
    "TLE_LINE2": "2 53662  97.6019 194.3995 0002373  83.2627 276.8869 15.05666214175475",
    "COMMENT": "Grouped by shell and plane from TLE"
  },
  {
    "OBJECT_NAME": "STARLINK-4457",
    "OBJECT_ID": "22105R",
    "EPOCH": "2025-11-11T06:22:27.331104",
    "MEAN_MOTION": 15.05667589,
    "ECCENTRICITY": 0.0002438,
    "INCLINATION": 97.6013,
    "RA_OF_ASC_NODE": 194.5418,
    "ARG_OF_PERICENTER": 92.2315,
    "MEAN_ANOMALY": 267.9191,
    "EPHEMERIS_TYPE": 0,
    "CLASSIFICATION_TYPE": "U",
    "NORAD_CAT_ID": 53663,
    "ELEMENT_SET_NO": 999,
    "REV_AT_EPOCH": 17548,
    "BSTAR": 0.0,
    "MEAN_MOTION_DOT": -2.563e-05,
    "MEAN_MOTION_DDOT": 0.0,
    "TLE_LINE1": "1 53663U 22105R   25315.26559411 -.00002563  00000+0 -17341-3 0  9998",
    "TLE_LINE2": "2 53663  97.6013 194.5418 0002438  92.2315 267.9191 15.05667589175484",
    "COMMENT": "Grouped by shell and plane from TLE"
  },
  {
    "OBJECT_NAME": "STARLINK-4471",
    "OBJECT_ID": "22105S",
    "EPOCH": "2025-11-11T05:30:37.030464",
    "MEAN_MOTION": 15.05658211,
    "ECCENTRICITY": 0.0001916,
    "INCLINATION": 97.6009,
    "RA_OF_ASC_NODE": 194.4177,
    "ARG_OF_PERICENTER": 78.2371,
    "MEAN_ANOMALY": 281.9071,
    "EPHEMERIS_TYPE": 0,
    "CLASSIFICATION_TYPE": "U",
    "NORAD_CAT_ID": 53664,
    "ELEMENT_SET_NO": 999,
    "REV_AT_EPOCH": 17547,
    "BSTAR": 0.00036347,
    "MEAN_MOTION_DOT": 5.189e-05,
    "MEAN_MOTION_DDOT": 0.0,
    "TLE_LINE1": "1 53664U 22105S   25315.22959526  .00005189  00000+0  36347-3 0  9998",
    "TLE_LINE2": "2 53664  97.6009 194.4177 0001916  78.2371 281.9071 15.05658211175471",
    "COMMENT": "Grouped by shell and plane from TLE"
  },
  {
    "OBJECT_NAME": "STARLINK-4334",
    "OBJECT_ID": "22105T",
    "EPOCH": "2025-11-11T06:18:28.526688",
    "MEAN_MOTION": 15.05647951,
    "ECCENTRICITY": 0.0002448,
    "INCLINATION": 97.6012,
    "RA_OF_ASC_NODE": 194.5383,
    "ARG_OF_PERICENTER": 86.9613,
    "MEAN_ANOMALY": 273.1894,
    "EPHEMERIS_TYPE": 0,
    "CLASSIFICATION_TYPE": "U",
    "NORAD_CAT_ID": 53665,
    "ELEMENT_SET_NO": 999,
    "REV_AT_EPOCH": 17548,
    "BSTAR": 5.9488e-05,
    "MEAN_MOTION_DOT": 7.98e-06,
    "MEAN_MOTION_DDOT": 0.0,
    "TLE_LINE1": "1 53665U 22105T   25315.26283017  .00000798  00000+0  59488-4 0  9991",
    "TLE_LINE2": "2 53665  97.6012 194.5383 0002448  86.9613 273.1894 15.05647951175488",
    "COMMENT": "Grouped by shell and plane from TLE"
  }
]